IRIDIUM 155             
1 43573U 18061E   24363.77724829  .00000823  00000+0  28686-3 0  9997
2 43573  86.3963 280.4033 0001772  84.8208 275.3190 14.34220877336621
IRIDIUM 154             
1 43574U 18061F   24363.61868357  .00000017  00000+0 -10864-5 0  9993
2 43574  86.3968 280.5763 0002232  82.1529 277.9920 14.34214953336646
IRIDIUM 163             
1 43575U 18061G   24363.59965775  .00000017  00000+0 -88238-6 0  9994
2 43575  86.3962 280.5171 0001879  79.7331 280.4077 14.34216507336619
IRIDIUM 156             
1 43576U 18061H   24363.50451373  .00000843  00000+0  29397-3 0  9994
2 43576  86.3964 280.5629 0001754  88.5888 271.5509 14.34215150336598
IRIDIUM 164             
1 43577U 18061J   24363.48548813  .00000832  00000+0  29013-3 0  9991
2 43577  86.3963 280.6031 0002321  88.4933 271.6528 14.34221401336630
IRIDIUM 159             
1 43578U 18061K   24363.52354171  .00000575  00000+0  19815-3 0  9992
2 43578  86.3963 280.5351 0002199  84.0532 276.0914 14.34220560336605
IRIDIUM 180             
1 43922U 19002A   24363.73234795 -.00000082  00000+0 -36410-4 0  9999
2 43922  86.3979 217.3276 0001882  85.4540 274.6871 14.34217563312284
IRIDIUM 176             
1 43923U 19002B   24363.09768875  .00002440  00000+0  38286-3 0  9990
2 43923  86.6104 217.5993 0002826  69.5436 290.6084 14.72258381320370
IRIDIUM 168             
1 43924U 19002C   24363.51667845  .00000694  00000+0  24074-3 0  9992
2 43924  86.3980 217.4802 0002020  86.5002 273.6425 14.34227074312196
IRIDIUM 173             
1 43925U 19002D   24363.36447373  .00000479  00000+0  16387-3 0  9997
2 43925  86.3980 217.4546 0001881  83.4224 276.7186 14.34216224312157
IRIDIUM 169             
1 43926U 19002E   24363.39458171  .00000951  00000+0  30432-3 0  9991
2 43926  86.4223 249.0523 0001144  28.8926 331.2336 14.38607110313190
IRIDIUM 172             
1 43927U 19002F   24363.56743645  .00000470  00000+0  16065-3 0  9996
2 43927  86.3975 217.3762 0002118  86.6386 273.5052 14.34221251312197
IRIDIUM 175             
1 43928U 19002G   24363.77205235  .00001041  00000+0  16119-3 0  9993
2 43928  86.1523 179.5237 0001070 132.8520 227.2787 14.72254006320467
IRIDIUM 171             
1 43929U 19002H   24363.54841275 -.00000018  00000+0 -13452-4 0  9992
2 43929  86.3987 217.6307 0001919  99.1581 260.9832 14.34217647312183
IRIDIUM 170             
1 43930U 19002J   24363.57964038  .00002818  00000+0  44310-3 0  9994
2 43930  86.6103 217.4033 0002445  79.4633 280.6859 14.72236299320459
IRIDIUM 167             
1 43931U 19002K   24363.61183268  .00000438  00000+0  14920-3 0  9998
2 43931  86.3977 217.3752 0001725  96.8722 263.2670 14.34221974312197
IRIDIUM 181             
1 56726U 23068S   24363.54002693  .00001100  00000+0  31924-3 0  9995
2 56726  86.6868 280.0718 0002394  93.7207 266.4269 14.43570711 85171
IRIDIUM 177             
1 56727U 23068T   24363.57986033  .00000217  00000+0  25045-4 0  9994
2 56727  86.1976 223.0474 0001702  81.6782 278.4632 14.80216935 87130
IRIDIUM 174             
1 56728U 23068U   24363.57441804  .00003304  00000+0  43141-3 0  9993
2 56728  86.1982 223.1690 0002327  86.7136 273.4351 14.80219515 87132
IRIDIUM 178             
1 56729U 23068V   24363.56900224  .00000508  00000+0  63391-4 0  9992
2 56729  86.5774 249.8311 0002614  88.8915 271.2606 14.80217246 87136
IRIDIUM 179             
1 56730U 23068W   24363.56357240  .00003276  00000+0  42766-3 0  9995
2 56730  86.6784 256.4149 0002398  81.4222 278.7272 14.80229805 87137
